NORAD_CAT_ID,OBJECT_NAME,OBJECT_TYPE,EPOCH,MEAN_MOTION,ECCENTRICITY,INCLINATION,RA_OF_ASC_NODE,ARG_OF_PERICENTER,MEAN_ANOMALY,BSTAR,MEAN_MOTION_DOT,MEAN_MOTION_DDOT,TLE_LINE0,TLE_LINE1,TLE_LINE2,SEMIMAJOR_AXIS,PERIOD,APOGEE,PERIGEE,DECAYED
52376.0,STARLINK-3767,PAYLOAD,2023-09-28 07:10:30,15.08835028,0.0001547,53.216,239.7085,85.6524,274.4645,3.0823e-05,2.03e-06,0.0,0 STARLINK-3767,1 52376U 22045AX  23271.29896595  .00000203  00000-0  30823-4 0  9999,2 52376  53.2160 239.7085 0001547  85.6524 274.4645 15.08835028 81059,6917.896,95.438,540.831,538.69,0.0
52376.0,STARLINK-3767,PAYLOAD,2023-09-29 10:12:03,15.08855068,0.0001536,53.2164,234.6493,80.7757,279.3409,0.0005287,8.14e-05,0.0,0 STARLINK-3767,1 52376U 22045AX  23272.42504291  .00008140  00000-0  52870-3 0  9997,2 52376  53.2164 234.6493 0001536  80.7757 279.3409 15.08855068 81229,6917.834,95.437,540.762,538.637,0.0
52376.0,STARLINK-3767,PAYLOAD,2023-09-30 03:41:17,15.08857248,0.0001936,53.2171,231.3709,122.793,237.3249,0.00032964,4.964e-05,0.0,0 STARLINK-3767,1 52376U 22045AX  23273.15367676  .00004964  00000-0  32964-3 0  9994,2 52376  53.2171 231.3709 0001936 122.7930 237.3249 15.08857248 81335,6917.828,95.436,541.032,538.353,0.0
52376.0,STARLINK-3767,PAYLOAD,2023-09-30 06:52:03,15.08857046,0.000187,53.217,230.7771,118.795,241.323,0.00029988,4.49e-05,0.0,0 STARLINK-3767,1 52376U 22045AX  23273.28615606  .00004490  00000-0  29988-3 0  9993,2 52376  53.2170 230.7771 0001870 118.7950 241.3230 15.08857046 81353,6917.828,95.436,540.987,538.4,0.0
52376.0,STARLINK-3767,PAYLOAD,2023-10-01 03:32:05,15.08843423,0.0001513,53.2168,226.9182,88.1035,272.013,0.00010099,1.32e-05,0.0,0 STARLINK-3767,1 52376U 22045AX  23274.14728259  .00001320  00000-0  10099-3 0  9990,2 52376  53.2168 226.9182 0001513  88.1035 272.0130 15.08843423 81489,6917.87,95.437,540.782,538.688,0.0
52376.0,STARLINK-3767,PAYLOAD,2023-10-01 21:01:20,15.08841019,0.0001566,53.2168,223.6467,94.6786,265.4385,0.00024144,3.557e-05,0.0,0 STARLINK-3767,1 52376U 22045AX  23274.87592712  .00003557  00000-0  24144-3 0  9993,2 52376  53.2168 223.6467 0001566  94.6786 265.4385 15.08841019 81591,6917.877,95.437,540.826,538.659,0.0
52376.0,STARLINK-3767,PAYLOAD,2023-10-02 08:09:01,15.08855951,0.0001487,53.2168,221.5656,96.7166,263.3995,0.0009197,0.00014386,0.0,0 STARLINK-3767,1 52376U 22045AX  23275.33960351  .00014386  00000-0  91970-3 0  9996,2 52376  53.2168 221.5656 0001487  96.7166 263.3995 15.08855951 81667,6917.832,95.437,540.725,538.668,0.0
52376.0,STARLINK-3767,PAYLOAD,2023-10-02 20:52:07,15.08837599,0.0001467,53.2164,219.1877,102.7831,257.3325,5.0771e-05,5.2e-06,0.0,0 STARLINK-3767,1 52376U 22045AX  23275.86952814  .00000520  00000-0  50771-4 0  9999,2 52376  53.2164 219.1877 0001467 102.7831 257.3325 15.08837599 81743,6917.888,95.438,540.768,538.738,0.0
52376.0,STARLINK-3767,PAYLOAD,2023-10-03 12:45:58,15.08841759,0.0001567,53.2161,216.2113,78.2434,281.8733,0.00051249,7.878e-05,0.0,0 STARLINK-3767,1 52376U 22045AX  23276.53192818  .00007878  00000-0  51249-3 0  9997,2 52376  53.2161 216.2113 0001567  78.2434 281.8733 15.08841759 81847,6917.875,95.437,540.824,538.656,0.0
52376.0,STARLINK-3767,PAYLOAD,2023-10-03 19:07:31,15.08846311,0.0001656,53.2165,215.0243,82.071,278.047,0.00090527,0.00014151,0.0,0 STARLINK-3767,1 52376U 22045AX  23276.79688839  .00014151  00000-0  90527-3 0  9992,2 52376  53.2165 215.0243 0001656  82.0710 278.0470 15.08846311 81880,6917.861,95.437,540.872,538.581,0.0
52376.0,STARLINK-3767,PAYLOAD,2023-10-04 06:15:13,15.08842387,0.0001662,53.2167,212.9448,86.5955,273.5227,0.00040924,6.231e-05,0.0,0 STARLINK-3767,1 52376U 22045AX  23277.26057112  .00006231  00000-0  40924-3 0  9995,2 52376  53.2167 212.9448 0001662  86.5955 273.5227 15.08842387 81959,6917.873,95.437,540.888,538.588,0.0
52376.0,STARLINK-3767,PAYLOAD,2023-10-04 12:36:45,15.08840376,0.0001464,53.2162,211.7541,81.3876,278.7282,0.00046036,7.046e-05,0.0,0 STARLINK-3767,1 52376U 22045AX  23277.52553210  .00007046  00000-0  46036-3 0  9999,2 52376  53.2162 211.7541 0001464  81.3876 278.7282 15.08840376 81998,6917.879,95.438,540.757,538.731,0.0
52376.0,STARLINK-3767,PAYLOAD,2023-10-04 18:58:18,15.08849436,0.000158,53.217,210.566,84.5248,275.5924,0.00084742,0.00013228,0.0,0 STARLINK-3767,1 52376U 22045AX  23277.79049173  .00013228  00000-0  84742-3 0  9991,2 52376  53.2170 210.5660 0001580  84.5248 275.5924 15.08849436 82033,6917.852,95.437,540.81,538.624,0.0
52376.0,STARLINK-3767,PAYLOAD,2023-10-05 06:05:59,15.08875857,0.0001213,53.2157,208.4825,69.1301,290.9821,0.0010926,0.00017161,0.0,0 STARLINK-3767,1 52376U 22045AX  23278.25416432  .00017161  00000-0  10926-2 0  9991,2 52376  53.2157 208.4825 0001213  69.1301 290.9821 15.08875857 82100,6917.771,95.435,540.475,538.797,0.0
52376.0,STARLINK-3767,PAYLOAD,2023-10-05 12:27:32,15.08852421,0.0001303,53.2139,207.2894,80.762,279.3519,0.00088398,0.00013813,0.0,0 STARLINK-3767,1 52376U 22045AX  23278.51912905  .00013813  00000-0  88398-3 0  9995,2 52376  53.2139 207.2894 0001303  80.7620 279.3519 15.08852421 82147,6917.842,95.437,540.609,538.806,0.0
52376.0,STARLINK-3767,PAYLOAD,2023-10-06 02:46:00,15.08857689,0.0001631,53.216,204.6184,86.0153,274.1026,0.00154,0.00024318,0.0,0 STARLINK-3767,1 52376U 22045AX  23279.11528885  .00024318  00000-0  15400-2 0  9997,2 52376  53.2160 204.6184 0001631  86.0153 274.1026 15.08857689 82235,6917.826,95.436,540.82,538.563,0.0
52376.0,STARLINK-3767,PAYLOAD,2023-10-06 12:18:20,15.08845649,0.0001661,53.2163,202.8331,73.4382,286.6793,0.00073679,0.00011459,0.0,0 STARLINK-3767,1 52376U 22045AX  23279.51273296  .00011459  00000-0  73679-3 0  9999,2 52376  53.2163 202.8331 0001661  73.4382 286.6793 15.08845649 82297,6917.863,95.437,540.877,538.579,0.0
52376.0,STARLINK-3767,PAYLOAD,2023-10-07 01:01:25,15.08841364,0.0001399,53.2149,200.4542,78.1988,281.9161,0.0021653,0.00034342,0.0,0 STARLINK-3767,1 52376U 22045AX  23280.04265745  .00034342  00000-0  21653-2 0  9999,2 52376  53.2149 200.4542 0001399  78.1988 281.9161 15.08841364 82377,6917.876,95.437,540.709,538.773,0.0
52376.0,STARLINK-3767,PAYLOAD,2023-10-07 12:09:07,15.08852142,0.0001243,53.2154,198.3713,89.0739,271.0395,0.0012478,0.00019633,0.0,0 STARLINK-3767,1 52376U 22045AX  23280.50633652  .00019633  00000-0  12478-2 0  9997,2 52376  53.2154 198.3713 0001243  89.0739 271.0395 15.08852142 82444,6917.843,95.437,540.568,538.848,0.0
52376.0,STARLINK-3767,PAYLOAD,2023-10-08 00:52:12,15.08862726,0.000157,53.2156,195.993,95.0612,265.056,0.0015006,0.0002369,0.0,0 STARLINK-3767,1 52376U 22045AX  23281.03625395  .00023690  00000-0  15006-2 0  9999,2 52376  53.2156 195.9930 0001570  95.0612 265.0560 15.08862726 82525,6917.811,95.436,540.762,538.59,0.0
52376.0,STARLINK-3767,PAYLOAD,2023-10-08 11:59:54,15.08847994,0.0001699,53.2172,193.9131,85.0226,275.096,0.00039221,5.961e-05,0.0,0 STARLINK-3767,1 52376U 22045AX  23281.49993550  .00005961  00000-0  39221-3 0  9997,2 52376  53.2172 193.9131 0001699  85.0226 275.0960 15.08847994 82598,6917.856,95.437,540.896,538.546,0.0
52376.0,STARLINK-3767,PAYLOAD,2023-10-08 18:21:26,15.0886345,0.0001565,53.216,192.723,88.0435,272.0737,0.0010136,0.00015891,0.0,0 STARLINK-3767,1 52376U 22045AX  23281.76489133  .00015891  00000-0  10136-2 0  9990,2 52376  53.2160 192.7230 0001565  88.0435 272.0737 15.08863450 82638,6917.809,95.436,540.756,538.591,0.0
52376.0,STARLINK-3767,PAYLOAD,2023-10-08 21:32:12,15.08863162,0.0001323,53.2161,192.128,104.8681,255.2458,0.0017562,0.0002779,0.0,0 STARLINK-3767,1 52376U 22045AX  23281.89737007  .00027790  00000-0  17562-2 0  9991,2 52376  53.2161 192.1280 0001323 104.8681 255.2458 15.08863162 82655,6917.81,95.436,540.59,538.759,0.0
52376.0,STARLINK-3767,PAYLOAD,2023-10-09 02:18:21,15.08861042,0.000121,53.2165,191.2362,98.4079,261.705,0.0013386,0.00021092,0.0,0 STARLINK-3767,1 52376U 22045AX  23282.09608735  .00021092  00000-0  13386-2 0  9998,2 52376  53.2165 191.2362 0001210  98.4079 261.7050 15.08861042 82682,6917.816,95.436,540.518,538.844,0.0
52376.0,STARLINK-3767,PAYLOAD,2023-10-09 21:23:00,15.08846596,8.29e-05,53.2165,187.6662,80.9668,279.1418,0.00089564,0.00013997,0.0,0 STARLINK-3767,1 52376U 22045AX  23282.89097452  .00013997  00000-0  89564-3 0  9991,2 52376  53.2165 187.6662 0000829  80.9668 279.1418 15.08846596 82801,6917.86,95.437,540.299,539.152,0.0
52376.0,STARLINK-3767,PAYLOAD,2023-10-10 00:33:46,15.08843538,0.000103,53.2166,187.0736,75.6552,284.4554,0.0012967,0.00020411,0.0,0 STARLINK-3767,1 52376U 22045AX  23283.02345613  .00020411  00000-0  12967-2 0  9993,2 52376  53.2166 187.0736 0001030  75.6552 284.4554 15.08843538 82821,6917.87,95.437,540.447,539.022,0.0
52376.0,STARLINK-3767,PAYLOAD,2023-10-10 18:03:01,15.0884155,0.0001085,53.2171,183.8032,98.6716,261.4399,0.0018908,0.00029933,0.0,0 STARLINK-3767,1 52376U 22045AX  23283.75210096  .00029933  00000-0  18908-2 0  9998,2 52376  53.2171 183.8032 0001085  98.6716 261.4399 15.08841550 82933,6917.876,95.437,540.491,538.99,0.0
52376.0,STARLINK-3767,PAYLOAD,2023-10-10 21:13:47,15.08847795,0.0001347,53.2175,183.2086,108.2915,251.8223,0.0011719,0.00018416,0.0,0 STARLINK-3767,1 52376U 22045AX  23283.88457967  .00018416  00000-0  11719-2 0  9999,2 52376  53.2175 183.2086 0001347 108.2915 251.8223 15.08847795 82958,6917.857,95.437,540.653,538.79,0.0
52376.0,STARLINK-3767,PAYLOAD,2023-10-11 09:56:52,15.08850349,0.0001107,53.2173,180.8301,91.432,268.6799,0.00041642,6.348e-05,0.0,0 STARLINK-3767,1 52376U 22045AX  23284.41449696  .00006348  00000-0  41642-3 0  9999,2 52376  53.2173 180.8301 0001107  91.4320 268.6799 15.08850349 83039,6917.849,95.437,540.48,538.948,0.0
52376.0,STARLINK-3767,PAYLOAD,2023-10-11 21:04:35,15.08829214,0.0001316,53.2178,178.7505,95.7834,264.3308,-0.0001604,-2.839e-05,0.0,0 STARLINK-3767,1 52376U 22045AX  23284.87818308 -.00002839  00000-0 -16040-3 0  9996,2 52376  53.2178 178.7505 0001316  95.7834 264.3308 15.08829214 83109,6917.913,95.438,540.689,538.868,0.0
